NORAD_CAT_ID,OBJECT_NAME,OBJECT_TYPE,EPOCH,MEAN_MOTION,ECCENTRICITY,INCLINATION,RA_OF_ASC_NODE,ARG_OF_PERICENTER,MEAN_ANOMALY,BSTAR,MEAN_MOTION_DOT,MEAN_MOTION_DDOT,TLE_LINE0,TLE_LINE1,TLE_LINE2,SEMIMAJOR_AXIS,PERIOD,APOGEE,PERIGEE,DECAYED
52467.0,STARLINK-3873,PAYLOAD,2024-02-29 14:59:19,15.08847638,0.0001435,53.2164,136.9107,95.9096,264.2059,0.00024914,3.68e-05,0.0,0 STARLINK-3873,1 52467U 22049S   24060.62452573  .00003680  00000-0  24914-3 0  9997,2 52467  53.2164 136.9107 0001435  95.9096 264.2059 15.08847638100835,6917.857,95.437,540.715,538.729,0.0
52467.0,STARLINK-3873,PAYLOAD,2024-03-01 11:39:20,15.088422,0.0001261,53.2176,133.0461,88.1829,271.9308,0.00011437,1.533e-05,0.0,0 STARLINK-3873,1 52467U 22049S   24061.48564987  .00001533  00000-0  11437-3 0  9996,2 52467  53.2176 133.0461 0001261  88.1829 271.9308 15.08842200100803,6917.874,95.437,540.611,538.866,0.0
52467.0,STARLINK-3873,PAYLOAD,2024-03-02 09:54:43,15.08847482,0.0001378,53.2159,128.8841,86.2147,273.9002,0.0001252,1.706e-05,0.0,0 STARLINK-3873,1 52467U 22049S   24062.41300493  .00001706  00000-0  12520-3 0  9996,2 52467  53.2159 128.8841 0001378  86.2147 273.9002 15.08847482100944,6917.858,95.437,540.676,538.769,0.0
52467.0,STARLINK-3873,PAYLOAD,2024-03-03 11:20:54,15.08837911,0.0001668,53.2174,124.127,70.6202,289.4971,3.996e-05,3.48e-06,0.0,0 STARLINK-3873,1 52467U 22049S   24063.47285177  .00000348  00000-0  39960-4 0  9993,2 52467  53.2174 124.1270 0001668  70.6202 289.4971 15.08837911101266,6917.887,95.438,540.906,538.598,0.0
52467.0,STARLINK-3873,PAYLOAD,2024-03-03 12:56:17,15.0884186,0.0001389,53.2166,123.83,101.4389,258.6759,7.5298e-05,9.11e-06,0.0,0 STARLINK-3873,1 52467U 22049S   24063.53908761  .00000911  00000-0  75298-4 0  9991,2 52467  53.2166 123.8300 0001389 101.4389 258.6759 15.08841860101110,6917.875,95.437,540.701,538.779,0.0
52467.0,STARLINK-3873,PAYLOAD,2024-03-04 12:47:04,15.08845738,0.000181,53.218,119.364,89.0214,271.0986,0.0008816,0.00013773,0.0,0 STARLINK-3873,1 52467U 22049S   24064.53268872  .00013773  00000-0  88160-3 0  9995,2 52467  53.2180 119.3640 0001810  89.0214 271.0986 15.08845738101265,6917.863,95.437,540.98,538.476,0.0
52467.0,STARLINK-3873,PAYLOAD,2024-03-04 20:43:59,15.08835306,0.0001526,53.2173,117.8782,96.4201,263.6965,-7.4912e-05,-1.48e-05,0.0,0 STARLINK-3873,1 52467U 22049S   24064.86388795 -.00001480  00000-0 -74912-4 0  9993,2 52467  53.2173 117.8782 0001526  96.4201 263.6965 15.08835306101476,6917.895,95.438,540.815,538.704,0.0
52467.0,STARLINK-3873,PAYLOAD,2024-03-05 12:37:52,15.08824959,0.0001622,53.2175,114.9041,100.1516,259.9659,-0.00013311,-2.405e-05,0.0,0 STARLINK-3873,1 52467U 22049S   24065.52629798 -.00002405  00000-0 -13311-3 0  9991,2 52467  53.2175 114.9041 0001622 100.1516 259.9659 15.08824959101417,6917.926,95.439,540.913,538.669,0.0
52467.0,STARLINK-3873,PAYLOAD,2024-03-06 09:17:53,15.08842637,0.0001517,53.2163,111.0414,104.9892,255.1268,0.00081535,0.00012713,0.0,0 STARLINK-3873,1 52467U 22049S   24066.38742261  .00012713  00000-0  81535-3 0  9991,2 52467  53.2163 111.0414 0001517 104.9892 255.1268 15.08842637101707,6917.872,95.437,540.787,538.688,0.0
52467.0,STARLINK-3873,PAYLOAD,2024-03-06 12:28:39,15.08853018,0.000152,53.2163,110.4462,106.3114,253.8046,0.0011491,0.00018054,0.0,0 STARLINK-3873,1 52467U 22049S   24066.51990156  .00018054  00000-0  11491-2 0  9991,2 52467  53.2163 110.4462 0001520 106.3114 253.8046 15.08853018101568,6917.841,95.437,540.757,538.654,0.0
52467.0,STARLINK-3873,PAYLOAD,2024-03-07 12:19:26,15.08850681,0.0001665,53.2174,105.9832,103.6752,256.4425,0.00037722,5.722e-05,0.0,0 STARLINK-3873,1 52467U 22049S   24067.51349880  .00005722  00000-0  37722-3 0  9998,2 52467  53.2174 105.9832 0001665 103.6752 256.4425 15.08850681101718,6917.848,95.437,540.865,538.561,0.0
52467.0,STARLINK-3873,PAYLOAD,2024-03-08 05:48:40,15.08846112,0.0001661,53.2171,102.7116,103.1256,256.9922,8.096e-05,1.001e-05,0.0,0 STARLINK-3873,1 52467U 22049S   24068.24213741  .00001001  00000-0  80960-4 0  9994,2 52467  53.2171 102.7116 0001661 103.1256 256.9922 15.08846112101985,6917.862,95.437,540.876,538.578,0.0
52467.0,STARLINK-3873,PAYLOAD,2024-03-08 08:59:26,15.08848854,0.0001434,53.2165,102.1172,93.6179,266.4977,0.00015794,2.227e-05,0.0,0 STARLINK-3873,1 52467U 22049S   24068.37461694  .00002227  00000-0  15794-3 0  9993,2 52467  53.2165 102.1172 0001434  93.6179 266.4977 15.08848854101845,6917.853,95.437,540.71,538.726,0.0
52467.0,STARLINK-3873,PAYLOAD,2024-03-09 12:00:59,15.08850186,0.0001531,53.2164,97.0653,89.9574,270.1594,0.00021021,3.06e-05,0.0,0 STARLINK-3873,1 52467U 22049S   24069.50069432  .00003060  00000-0  21021-3 0  9999,2 52467  53.2164  97.0653 0001531  89.9574 270.1594 15.08850186102170,6917.849,95.437,540.773,538.655,0.0
52467.0,STARLINK-3873,PAYLOAD,2024-03-09 18:22:32,15.08844418,0.0001512,53.2168,95.8751,89.7059,270.4107,0.00012176,1.651e-05,0.0,0 STARLINK-3873,1 52467U 22049S   24069.76565694  .00001651  00000-0  12176-3 0  9993,2 52467  53.2168  95.8751 0001512  89.7059 270.4107 15.08844418102213,6917.867,95.437,540.778,538.686,0.0
52467.0,STARLINK-3873,PAYLOAD,2024-03-10 10:16:24,15.08843312,0.0001451,53.2163,92.903,90.9945,269.1213,7.5387e-05,9.12e-06,0.0,0 STARLINK-3873,1 52467U 22049S   24070.42805722  .00000912  00000-0  75387-4 0  9990,2 52467  53.2163  92.9030 0001451  90.9945 269.1213 15.08843312102154,6917.87,95.437,540.739,538.731,0.0
52467.0,STARLINK-3873,PAYLOAD,2024-03-10 18:13:19,15.0884141,0.0001441,53.2161,91.416,91.7129,268.4028,4.0175e-05,3.52e-06,0.0,0 STARLINK-3873,1 52467U 22049S   24070.75925800  .00000352  00000-0  40175-4 0  9991,2 52467  53.2161  91.4160 0001441  91.7129 268.4028 15.08841410102368,6917.876,95.437,540.738,538.744,0.0
52467.0,STARLINK-3873,PAYLOAD,2024-03-11 08:31:48,15.08843865,0.0001423,53.216,88.7395,93.2515,266.864,0.00011382,1.524e-05,0.0,0 STARLINK-3873,1 52467U 22049S   24071.35541698  .00001524  00000-0  11382-3 0  9996,2 52467  53.2160  88.7395 0001423  93.2515 266.8640 15.08843865102292,6917.869,95.437,540.718,538.749,0.0
52467.0,STARLINK-3873,PAYLOAD,2024-03-12 05:11:49,15.08835895,0.0001366,53.2156,84.873,90.3058,269.8091,3.6368e-05,2.91e-06,0.0,0 STARLINK-3873,1 52467U 22049S   24072.21654170  .00000291  00000-0  36368-4 0  9994,2 52467  53.2156  84.8730 0001366  90.3058 269.8091 15.08835895102582,6917.893,95.438,540.703,538.813,0.0
52467.0,STARLINK-3873,PAYLOAD,2024-03-12 09:57:58,15.08838826,0.0001388,53.2163,83.9812,90.3905,269.7247,5.6512e-05,6.12e-06,0.0,0 STARLINK-3873,1 52467U 22049S   24072.41526162  .00000612  00000-0  56512-4 0  9995,2 52467  53.2163  83.9812 0001388  90.3905 269.7247 15.08838826102451,6917.884,95.438,540.709,538.789,0.0
52467.0,STARLINK-3873,PAYLOAD,2024-03-13 09:48:45,15.08846655,0.0001473,53.2179,79.5192,90.8698,269.2463,0.00012166,1.649e-05,0.0,0 STARLINK-3873,1 52467U 22049S   24073.40885870  .00001649  00000-0  12166-3 0  9996,2 52467  53.2179  79.5192 0001473  90.8698 269.2463 15.08846655102767,6917.86,95.437,540.744,538.706,0.0
52467.0,STARLINK-3873,PAYLOAD,2024-03-13 17:45:41,15.08844028,0.0001481,53.2181,78.0321,92.5522,267.564,0.00013517,1.864e-05,0.0,0 STARLINK-3873,1 52467U 22049S   24073.74006039  .00001864  00000-0  13517-3 0  9995,2 52467  53.2181  78.0321 0001481  92.5522 267.5640 15.08844028102650,6917.868,95.437,540.758,538.709,0.0
52467.0,STARLINK-3873,PAYLOAD,2024-03-14 04:53:23,15.08843484,0.0001557,53.217,75.9515,89.9665,270.1506,0.00016085,2.273e-05,0.0,0 STARLINK-3873,1 52467U 22049S   24074.20374193  .00002273  00000-0  16085-3 0  9994,2 52467  53.2170  75.9515 0001557  89.9665 270.1506 15.08843484102882,6917.87,95.437,540.812,538.658,0.0
52467.0,STARLINK-3873,PAYLOAD,2024-03-14 06:28:46,15.088446,0.0001566,53.2169,75.6541,90.358,269.7591,0.00017616,2.517e-05,0.0,0 STARLINK-3873,1 52467U 22049S   24074.26998134  .00002517  00000-0  17616-3 0  9999,2 52467  53.2169  75.6541 0001566  90.3580 269.7591 15.08844600102731,6917.866,95.437,540.815,538.648,0.0
52467.0,STARLINK-3873,PAYLOAD,2024-03-15 04:44:10,15.08836594,0.0001545,53.2173,71.4915,91.1658,268.9511,7.2131e-06,-1.73e-06,0.0,0 STARLINK-3873,1 52467U 22049S   24075.19734829 -.00000173  00000-0  72131-5 0  9993,2 52467  53.2173  71.4915 0001545  91.1658 268.9511 15.08836594103037,6917.891,95.438,540.825,538.687,0.0
52467.0,STARLINK-3873,PAYLOAD,2024-03-15 09:30:20,15.08836122,0.0001515,53.2173,70.5989,93.6878,266.4288,4.5447e-05,4.35e-06,0.0,0 STARLINK-3873,1 52467U 22049S   24075.39606711  .00000435  00000-0  45447-4 0  9992,2 52467  53.2173  70.5989 0001515  93.6878 266.4288 15.08836122102902,6917.892,95.438,540.805,538.709,0.0
52467.0,STARLINK-3873,PAYLOAD,2024-03-16 09:21:06,15.08845692,0.0001658,53.2181,66.1383,104.7399,255.3777,7.9375e-05,9.76e-06,0.0,0 STARLINK-3873,1 52467U 22049S   24076.38965921  .00000976  00000-0  79375-4 0  9990,2 52467  53.2181  66.1383 0001658 104.7399 255.3777 15.08845692103217,6917.863,95.437,540.875,538.581,0.0
52467.0,STARLINK-3873,PAYLOAD,2024-03-17 04:25:44,15.08836487,0.0001486,53.2181,62.5675,88.7663,271.3499,6.5488e-05,7.54e-06,0.0,0 STARLINK-3873,1 52467U 22049S   24077.18454772  .00000754  00000-0  65488-4 0  9990,2 52467  53.2181  62.5675 0001486  88.7663 271.3499 15.08836487103339,6917.891,95.438,540.784,538.728,0.0
52467.0,STARLINK-3873,PAYLOAD,2024-03-17 06:01:07,15.08837898,0.0001524,53.2181,62.2701,93.6898,266.4269,7.9966e-05,9.85e-06,0.0,0 STARLINK-3873,1 52467U 22049S   24077.25078642  .00000985  00000-0  79966-4 0  9998,2 52467  53.2181  62.2701 0001524  93.6898 266.4269 15.08837898103184,6917.887,95.438,540.806,538.698,0.0
52467.0,STARLINK-3873,PAYLOAD,2024-03-18 05:51:55,15.0883692,0.0001624,53.219,57.8079,100.5168,259.6007,1.5591e-05,-4e-07,0.0,0 STARLINK-3873,1 52467U 22049S   24078.24438982 -.00000040  00000-0  15591-4 0  9992,2 52467  53.2190  57.8079 0001624 100.5168 259.6007 15.08836920103494,6917.89,95.438,540.878,538.631,0.0
